{
  "type": "FeatureCollection",
  "features": [
    {
      "type": "Feature",
      "geometry": {
        "type": "Point",
        "coordinates": [-67.59759630681955, -2.004944686683507]
      },
      "id": "0",
      "properties": {
        "tropospheric_HCHO_column_number_density": 2.2425316081593408e-4
      }
    },
    {
      "type": "Feature",
      "geometry": {
        "type": "Point",
        "coordinates": [-75.35449370769436, 7.183699508534736]
      },
      "id": "1",
      "properties": {
        "tropospheric_HCHO_column_number_density": 1.6016023619836044e-4
      }
    },
    {
      "type": "Feature",
      "geometry": {
        "type": "Point",
        "coordinates": [-50.968246147594535, -15.79955385186188]
      },
      "id": "4",
      "properties": {
        "tropospheric_HCHO_column_number_density": 2.0558785008007143e-4
      }
    },
    {
      "type": "Feature",
      "geometry": {
        "type": "Point",
        "coordinates": [-61.85999889417174, -9.441604362925498]
      },
      "id": "6",
      "properties": {
        "tropospheric_HCHO_column_number_density": 5.064282953201709e-4
      }
    },
    {
      "type": "Feature",
      "geometry": {
        "type": "Point",
        "coordinates": [-62.57318670321903, -15.084763190237354]
      },
      "id": "7",
      "properties": {
        "tropospheric_HCHO_column_number_density": 6.2643632453237e-4
      }
    },
    {
      "type": "Feature",
      "geometry": {
        "type": "Point",
        "coordinates": [-72.52997874362525, -8.625307994853252]
      },
      "id": "9",
      "properties": {
        "tropospheric_HCHO_column_number_density": 3.6852038869324166e-4
      }
    },
    {
      "type": "Feature",
      "geometry": {
        "type": "Point",
        "coordinates": [-67.1569823188944, -2.398163239528349]
      },
      "id": "10",
      "properties": {
        "tropospheric_HCHO_column_number_density": 2.479889223485928e-4
      }
    },
    {
      "type": "Feature",
      "geometry": {
        "type": "Point",
        "coordinates": [-63.65938121197962, -10.097322726421819]
      },
      "id": "11",
      "properties": {
        "tropospheric_HCHO_column_number_density": 4.4422797993922466e-4
      }
    },
    {
      "type": "Feature",
      "geometry": {
        "type": "Point",
        "coordinates": [-64.7275944728692, -4.834885058281418]
      },
      "id": "12",
      "properties": {
        "tropospheric_HCHO_column_number_density": 3.310898633807467e-4
      }
    },
    {
      "type": "Feature",
      "geometry": {
        "type": "Point",
        "coordinates": [-66.9938535819425, 5.872488071115292]
      },
      "id": "18",
      "properties": {
        "tropospheric_HCHO_column_number_density": 1.82959760947792e-4
      }
    },
    {
      "type": "Feature",
      "geometry": {
        "type": "Point",
        "coordinates": [-70.42649488376173, -11.163729060118493]
      },
      "id": "20",
      "properties": {
        "tropospheric_HCHO_column_number_density": 3.539871688941561e-4
      }
    },
    {
      "type": "Feature",
      "geometry": {
        "type": "Point",
        "coordinates": [-51.51713265732672, -13.066109393128702]
      },
      "id": "21",
      "properties": {
        "tropospheric_HCHO_column_number_density": 3.764156218033153e-4
      }
    },
    {
      "type": "Feature",
      "geometry": {
        "type": "Point",
        "coordinates": [-55.59667634387713, -8.699230133111609]
      },
      "id": "22",
      "properties": {
        "tropospheric_HCHO_column_number_density": 4.5090555598130373e-4
      }
    },
    {
      "type": "Feature",
      "geometry": {
        "type": "Point",
        "coordinates": [-47.814767893631185, -11.343775084035398]
      },
      "id": "23",
      "properties": {
        "tropospheric_HCHO_column_number_density": 2.947999905005864e-4
      }
    },
    {
      "type": "Feature",
      "geometry": {
        "type": "Point",
        "coordinates": [-57.04519383319038, -17.08134987647821]
      },
      "id": "24",
      "properties": {
        "tropospheric_HCHO_column_number_density": 4.956779598771654e-4
      }
    },
    {
      "type": "Feature",
      "geometry": {
        "type": "Point",
        "coordinates": [-59.17895284143958, -2.812451505201445]
      },
      "id": "25",
      "properties": {
        "tropospheric_HCHO_column_number_density": 3.382415345709713e-4
      }
    },
    {
      "type": "Feature",
      "geometry": {
        "type": "Point",
        "coordinates": [-74.06781119147396, -1.8252704810503926]
      },
      "id": "26",
      "properties": {
        "tropospheric_HCHO_column_number_density": 2.2117790148562256e-4
      }
    },
    {
      "type": "Feature",
      "geometry": {
        "type": "Point",
        "coordinates": [-73.46577442952665, 7.947067909785521]
      },
      "id": "27",
      "properties": {
        "tropospheric_HCHO_column_number_density": 1.5503657971227845e-4
      }
    },
    {
      "type": "Feature",
      "geometry": {
        "type": "Point",
        "coordinates": [-69.26109001534073, -12.86281236204259]
      },
      "id": "28",
      "properties": {
        "tropospheric_HCHO_column_number_density": 3.756054542068097e-4
      }
    },
    {
      "type": "Feature",
      "geometry": {
        "type": "Point",
        "coordinates": [-57.23554283711503, -11.606044867899435]
      },
      "id": "29",
      "properties": {
        "tropospheric_HCHO_column_number_density": 4.258162427003338e-4
      }
    },
    {
      "type": "Feature",
      "geometry": {
        "type": "Point",
        "coordinates": [-59.0817338759765, 0.34349063483664016]
      },
      "id": "30",
      "properties": {
        "tropospheric_HCHO_column_number_density": 1.590168108616293e-4
      }
    },
    {
      "type": "Feature",
      "geometry": {
        "type": "Point",
        "coordinates": [-51.19653109463546, -10.518755453628103]
      },
      "id": "31",
      "properties": {
        "tropospheric_HCHO_column_number_density": 5.253810112888564e-4
      }
    },
    {
      "type": "Feature",
      "geometry": {
        "type": "Point",
        "coordinates": [-56.94648691387678, 1.7310870760315349]
      },
      "id": "32",
      "properties": {
        "tropospheric_HCHO_column_number_density": 1.6557433145523583e-4
      }
    },
    {
      "type": "Feature",
      "geometry": {
        "type": "Point",
        "coordinates": [-42.24923361299525, -6.329240635529411]
      },
      "id": "33",
      "properties": {
        "tropospheric_HCHO_column_number_density": 1.8482638962032837e-4
      }
    },
    {
      "type": "Feature",
      "geometry": {
        "type": "Point",
        "coordinates": [-63.014438276523926, -2.597409072389062]
      },
      "id": "34",
      "properties": {
        "tropospheric_HCHO_column_number_density": 3.0916764087165653e-4
      }
    },
    {
      "type": "Feature",
      "geometry": {
        "type": "Point",
        "coordinates": [-49.91751346184783, -0.5582907034866977]
      },
      "id": "35",
      "properties": {
        "tropospheric_HCHO_column_number_density": 1.5999677487895883e-4
      }
    },
    {
      "type": "Feature",
      "geometry": {
        "type": "Point",
        "coordinates": [-44.54305507553415, -3.027791662805144]
      },
      "id": "38",
      "properties": {
        "tropospheric_HCHO_column_number_density": 2.2765995437253614e-4
      }
    },
    {
      "type": "Feature",
      "geometry": {
        "type": "Point",
        "coordinates": [-57.00106586716142, -0.18220895640663146]
      },
      "id": "39",
      "properties": {
        "tropospheric_HCHO_column_number_density": 1.791680767583141e-4
      }
    },
    {
      "type": "Feature",
      "geometry": {
        "type": "Point",
        "coordinates": [-59.58663597170043, -16.76028663469928]
      },
      "id": "41",
      "properties": {
        "tropospheric_HCHO_column_number_density": 4.7794400613628755e-4
      }
    },
    {
      "type": "Feature",
      "geometry": {
        "type": "Point",
        "coordinates": [-44.799240540504066, -16.36055208395691]
      },
      "id": "44",
      "properties": {
        "tropospheric_HCHO_column_number_density": 1.583327737847752e-4
      }
    },
    {
      "type": "Feature",
      "geometry": {
        "type": "Point",
        "coordinates": [-77.10160755842537, 3.6061504171095695]
      },
      "id": "45",
      "properties": {
        "tropospheric_HCHO_column_number_density": 1.6310371932234987e-4
      }
    },
    {
      "type": "Feature",
      "geometry": {
        "type": "Point",
        "coordinates": [-51.91562217816278, -12.841178835621387]
      },
      "id": "47",
      "properties": {
        "tropospheric_HCHO_column_number_density": 3.303118018021892e-4
      }
    },
    {
      "type": "Feature",
      "geometry": {
        "type": "Point",
        "coordinates": [-72.51518743941614, -12.52578949345958]
      },
      "id": "48",
      "properties": {
        "tropospheric_HCHO_column_number_density": 1.691943377451344e-4
      }
    },
    {
      "type": "Feature",
      "geometry": {
        "type": "Point",
        "coordinates": [-77.26670837870374, -5.535730357394028]
      },
      "id": "51",
      "properties": {
        "tropospheric_HCHO_column_number_density": 1.676878426449187e-4
      }
    },
    {
      "type": "Feature",
      "geometry": {
        "type": "Point",
        "coordinates": [-48.01268205034334, -8.693927931631716]
      },
      "id": "54",
      "properties": {
        "tropospheric_HCHO_column_number_density": 2.3731364149269358e-4
      }
    },
    {
      "type": "Feature",
      "geometry": {
        "type": "Point",
        "coordinates": [-56.47932528338857, -11.047593671310796]
      },
      "id": "55",
      "properties": {
        "tropospheric_HCHO_column_number_density": 5.282491201853571e-4
      }
    },
    {
      "type": "Feature",
      "geometry": {
        "type": "Point",
        "coordinates": [-73.52705711447874, -0.8479703066458348]
      },
      "id": "56",
      "properties": {
        "tropospheric_HCHO_column_number_density": 1.893290726630089e-4
      }
    },
    {
      "type": "Feature",
      "geometry": {
        "type": "Point",
        "coordinates": [-54.76840573955416, -3.662886784484859]
      },
      "id": "59",
      "properties": {
        "tropospheric_HCHO_column_number_density": 2.5903153333146645e-4
      }
    },
    {
      "type": "Feature",
      "geometry": {
        "type": "Point",
        "coordinates": [-74.70088765996536, 5.668268139133874]
      },
      "id": "60",
      "properties": {
        "tropospheric_HCHO_column_number_density": 2.1942271660555472e-4
      }
    },
    {
      "type": "Feature",
      "geometry": {
        "type": "Point",
        "coordinates": [-56.33473538826744, -10.174592057555193]
      },
      "id": "61",
      "properties": {
        "tropospheric_HCHO_column_number_density": 4.4325292189617766e-4
      }
    },
    {
      "type": "Feature",
      "geometry": {
        "type": "Point",
        "coordinates": [-64.25720175017342, -7.157190297464491]
      },
      "id": "62",
      "properties": {
        "tropospheric_HCHO_column_number_density": 3.897245684484921e-4
      }
    },
    {
      "type": "Feature",
      "geometry": {
        "type": "Point",
        "coordinates": [-48.75321512032577, -17.602666634939993]
      },
      "id": "63",
      "properties": {
        "tropospheric_HCHO_column_number_density": 1.9221803230253068e-4
      }
    },
    {
      "type": "Feature",
      "geometry": {
        "type": "Point",
        "coordinates": [-56.76060904368927, -13.100411497855774]
      },
      "id": "64",
      "properties": {
        "tropospheric_HCHO_column_number_density": 4.569369272907143e-4
      }
    },
    {
      "type": "Feature",
      "geometry": {
        "type": "Point",
        "coordinates": [-48.99196915492568, -8.355152312484005]
      },
      "id": "65",
      "properties": {
        "tropospheric_HCHO_column_number_density": 3.0007850286482894e-4
      }
    },
    {
      "type": "Feature",
      "geometry": {
        "type": "Point",
        "coordinates": [-58.40676868012411, -15.726308893894638]
      },
      "id": "66",
      "properties": {
        "tropospheric_HCHO_column_number_density": 4.831400052144152e-4
      }
    },
    {
      "type": "Feature",
      "geometry": {
        "type": "Point",
        "coordinates": [-47.881702869245395, -5.479015703146344]
      },
      "id": "67",
      "properties": {
        "tropospheric_HCHO_column_number_density": 2.0479357404962656e-4
      }
    },
    {
      "type": "Feature",
      "geometry": {
        "type": "Point",
        "coordinates": [-56.52533295484046, -15.714702362649616]
      },
      "id": "68",
      "properties": {
        "tropospheric_HCHO_column_number_density": 4.7034592451447674e-4
      }
    },
    {
      "type": "Feature",
      "geometry": {
        "type": "Point",
        "coordinates": [-56.6287267449738, -17.562908346384226]
      },
      "id": "70",
      "properties": {
        "tropospheric_HCHO_column_number_density": 4.5297226915332175e-4
      }
    },
    {
      "type": "Feature",
      "geometry": {
        "type": "Point",
        "coordinates": [-71.61323411970207, 1.7788567539668978]
      },
      "id": "72",
      "properties": {
        "tropospheric_HCHO_column_number_density": 2.0020891431541378e-4
      }
    },
    {
      "type": "Feature",
      "geometry": {
        "type": "Point",
        "coordinates": [-69.89647049648134, 0.4583973681561391]
      },
      "id": "74",
      "properties": {
        "tropospheric_HCHO_column_number_density": 1.871976559910097e-4
      }
    },
    {
      "type": "Feature",
      "geometry": {
        "type": "Point",
        "coordinates": [-55.1949455799845, -15.2111192201562]
      },
      "id": "75",
      "properties": {
        "tropospheric_HCHO_column_number_density": 4.456200111140497e-4
      }
    },
    {
      "type": "Feature",
      "geometry": {
        "type": "Point",
        "coordinates": [-65.10552102258906, -4.0890632085511704]
      },
      "id": "76",
      "properties": {
        "tropospheric_HCHO_column_number_density": 3.433343466858143e-4
      }
    },
    {
      "type": "Feature",
      "geometry": {
        "type": "Point",
        "coordinates": [-58.926967386730226, -12.041367195775988]
      },
      "id": "79",
      "properties": {
        "tropospheric_HCHO_column_number_density": 4.615534004427914e-4
      }
    },
    {
      "type": "Feature",
      "geometry": {
        "type": "Point",
        "coordinates": [-44.913625613574006, -12.146405014497729]
      },
      "id": "81",
      "properties": {
        "tropospheric_HCHO_column_number_density": 1.7199927375372015e-4
      }
    },
    {
      "type": "Feature",
      "geometry": {
        "type": "Point",
        "coordinates": [-74.26650362339458, -3.4294412789551907]
      },
      "id": "82",
      "properties": {
        "tropospheric_HCHO_column_number_density": 2.1669136242552205e-4
      }
    },
    {
      "type": "Feature",
      "geometry": {
        "type": "Point",
        "coordinates": [-45.44029486090043, -12.254161285841365]
      },
      "id": "83",
      "properties": {
        "tropospheric_HCHO_column_number_density": 1.9270065490466435e-4
      }
    },
    {
      "type": "Feature",
      "geometry": {
        "type": "Point",
        "coordinates": [-74.90857683349677, -10.273334595257959]
      },
      "id": "85",
      "properties": {
        "tropospheric_HCHO_column_number_density": 3.02178812008973e-4
      }
    },
    {
      "type": "Feature",
      "geometry": {
        "type": "Point",
        "coordinates": [-61.65097994173793, -14.20640691914592]
      },
      "id": "87",
      "properties": {
        "tropospheric_HCHO_column_number_density": 4.730741224572677e-4
      }
    },
    {
      "type": "Feature",
      "geometry": {
        "type": "Point",
        "coordinates": [-70.9827516778213, 5.798454043332903]
      },
      "id": "89",
      "properties": {
        "tropospheric_HCHO_column_number_density": 1.6263659323566596e-4
      }
    },
    {
      "type": "Feature",
      "geometry": {
        "type": "Point",
        "coordinates": [-62.3167028879798, -6.5938260303074]
      },
      "id": "90",
      "properties": {
        "tropospheric_HCHO_column_number_density": 4.078999261014342e-4
      }
    },
    {
      "type": "Feature",
      "geometry": {
        "type": "Point",
        "coordinates": [-45.35484312216323, -3.1490229202016367]
      },
      "id": "93",
      "properties": {
        "tropospheric_HCHO_column_number_density": 1.5136376816340808e-4
      }
    },
    {
      "type": "Feature",
      "geometry": {
        "type": "Point",
        "coordinates": [-48.915494885885785, -2.211966793867692]
      },
      "id": "95",
      "properties": {
        "tropospheric_HCHO_column_number_density": 1.6855190904532515e-4
      }
    }
  ]
}
